#cP2017 12 11  0  0  0.00000000      96 ORBIT IGS14 HLM  IGS
## 1979  86400.00000000   900.00000000 58098 0.0000000000000
+   32   G01G02G03G04G05G06G07G08G09G10G11G12G13G14G15G16G17
+        G18G19G20G21G22G23G24G25G26G27G28G29G30G31G32  0  0
+          0  0  0  0  0  0  0  0  0  0  0  0  0  0  0  0  0
+          0  0  0  0  0  0  0  0  0  0  0  0  0  0  0  0  0
+          0  0  0  0  0  0  0  0  0  0  0  0  0  0  0  0  0
++         2  2  2  0  2  2  2  2  2  2  2  2  2  2  2  2  2
++         2  2  2  2  2  2  2  2  2  2  2  2  3  2  2  0  0
++         0  0  0  0  0  0  0  0  0  0  0  0  0  0  0  0  0
++         0  0  0  0  0  0  0  0  0  0  0  0  0  0  0  0  0
++         0  0  0  0  0  0  0  0  0  0  0  0  0  0  0  0  0
%c G  cc GPS ccc cccc cccc cccc cccc ccccc ccccc ccccc ccccc
%c cc cc ccc ccc cccc cccc cccc cccc ccccc ccccc ccccc ccccc
%f  1.2500000  1.025000000  0.00000000000  0.000000000000000
%f  0.0000000  0.000000000  0.00000000000  0.000000000000000
%i    0    0    0    0      0      0      0      0         0
%i    0    0    0    0      0      0      0      0         0
/* RAPID ORBIT COMBINATION FROM WEIGHTED AVERAGE OF:        
/* cod emr esa gfz jpl ngs sio usn whu                      
/* REFERENCED TO IGS TIME (IGST) AND TO WEIGHTED MEAN POLE: 
/* PCV:IGS14_1977 OL/AL:FES2004  NONE     Y  ORB:CMB CLK:CMB
*  2017 12 11 23 15  0.00000000
PG01 -22031.834684 -14079.943544  -5591.367265    -16.184233 10  5 10 118       
PG02   2484.690662  16969.162338  20882.385946    257.840771  7  4  4 112       
PG03 -13168.563347 -16418.917789  16206.501509    -28.527683  8  7  9 105       
PG04   8880.292860 -19316.094911  15510.017767 999999.999999
PG05   2466.492136  26298.909055   1200.186065    -20.059225  4  7  5 105       
PG06 -10298.716731  11639.820208  21563.371554    412.928041  6  4  6 130       
PG07 -24737.747060  -4585.398224  -8977.195650    267.268427  8  5  8 130       
PG08  -6447.101814 -13805.593811 -21689.558472    -83.757550  8  7  8 118       
PG09 -22380.439494   4818.368488  13439.379177    482.092755  6  7  7 113       
PG10  11593.622877 -14682.932473 -18772.994764    127.744326  6  7  6 109       
PG11 -20089.347801 -11043.270946 -13872.205827   -730.220666  9  8  5 129       
PG12  10367.844961  19817.880880  14309.927479    360.820178  5  5  6  98       
PG13  -2418.922711  17260.269762 -20163.903431    -94.684165  5  4  5 131       
PG14  16477.474323 -18342.260653   9930.450361    -90.382309  8  5  5  69       
PG15   9767.002881  12692.876959 -21378.239349   -357.382197  8  5  9  92       
PG16   -580.577107 -26322.238369    217.870334     35.555925  7  4  5 125       
PG17 -21592.071022  15296.245047   1364.002004   -138.772535  8  5  8 124       
PG18  15443.111941  -2721.590449 -20843.741495    633.406722  2  7  7 126       
PG19 -18324.692670  17356.142863   8333.036601   -470.470164  5  6  9 131       
PG20  14085.675991  18337.913818 -13253.961967    495.307965  8  7  8 113       
PG21  24372.366949   1988.898972  -9633.406180   -453.481807  8  8  9 122       
PG22 -11330.080326 -21843.333053  10201.360193   -219.175750  9  7 10 105       
PG23 -17030.010386  -5388.268222  20038.271500   -218.954538  7  5  6 127       
PG24  20637.474542  14765.624096  -8404.747996    -43.337036  7  5  7 127       
PG25  14866.335319   7003.086689  20759.489044   -504.205832  4  4  4 128       
PG26   4998.817827 -23525.547931  11145.969522   -328.796753  6  5  7 124       
PG27   6123.391954 -19086.710815 -17362.988859    355.257733  7  9  8 135       
PG28 -12912.145163  10793.716007 -19920.849540    670.202669  8  6  4 117       
PG29  20487.122873    205.504539  16886.939423    526.498285  8  4  6 120       
PG30 -20351.049636   3239.888718 -16827.236908    121.484128 11 11 12  99       
PG31   9811.993422 -11946.978697  21689.415414    156.136031  8  6  6  72       
PG32  20316.980342 -16923.567492   2114.179917   -529.266094  7  6  6 121       
*  2017 12 11 23 30  0.00000000
PG01 -21243.304150 -13968.535529  -8301.373989    -16.186505 11  5 10 120       
PG02    275.649609  16265.056013  21568.973452    257.832201  8  5  5 112       
PG03 -13230.194931 -18167.329132  14169.191023    -28.522258  8  7  9  91       
PG04   9249.084004 -17415.450685  17424.596184 999999.999999
PG05   2111.367808  26039.740592   4019.187723    -20.058286  6  7  5  98       
PG06 -12525.264291  10690.045561  20865.648585    412.929030  6  4  6 130       
PG07 -25473.601330  -5128.688372  -6328.588169    267.263661  8  5  8 118       
PG08  -4494.110828 -15307.042815 -21159.201400    -83.759130  9  7  8 115       
PG09 -21209.557469   3616.437359  15544.191123    482.096548  7  7  7 115       
PG10  12032.210790 -12492.617975 -20050.103042    127.750484  6  7  6 116       
PG11 -18463.896394 -11375.241833 -15817.864074   -730.222104  9  8  6 122       
PG12  10353.345999  21342.113506  11982.191932    360.818317  6  6  6 100       
PG13  -4358.408865  18318.774751 -18855.291221    -94.684470  6  5  6 136       
PG14  17405.870145 -18671.843403   7297.261553    -90.382875  8  5  6  87       
PG15   7962.127436  14279.629805 -21086.377075   -357.382219  9  5  9 107       
PG16   -360.082250 -26126.431681   3143.949518     35.555447  8  4  6 125       
PG17 -21669.293238  15097.240563  -1541.911576   -138.770927  8  5  8 118       
PG18  15908.694307   -251.298510 -20689.264251    633.406723  3  8  7 126       
PG19 -19117.873661  17646.039854   5602.244391   -470.468194  6  6  9 124       
PG20  14142.760784  19735.791704 -10964.436941    495.308664  9  8  8 112       
PG21  25267.690967   2618.902427  -7043.928615   -453.477516  9  8  9 127       
PG22 -11204.784046 -22887.187254   7678.622325   -219.187119  9  7 10 114       
PG23 -15290.831496  -6877.887781  20937.909669   -218.954563  8  6  7 126       
PG24  19529.577161  14632.736081 -10912.064171    -43.337201  7  5  7 133       
PG25  15111.553310   9326.603588  19667.635147   -504.211388  4  4  3 127       
PG26   5441.586518 -22164.028038  13493.965467   -328.783840  6  6  7 132       
PG27   7686.758502 -20127.131341 -15433.718912    355.260358  7  9  8 134       
PG28 -13120.788885   8340.373283 -20905.178041    670.205253  8  6  4 107       
PG29  18883.424191   1452.323782  18607.561150    526.493478  8  4  6 121       
PG30 -21913.886625   2294.130384 -14925.656721    121.481524 10 11 12  73       
PG31  12025.185097 -10939.673252  21134.280066    156.133811  8  6  7  74       
PG32  20544.966995 -16759.614687   -737.292377   -529.267859  8  7  6 128       
*  2017 12 11 23 45  0.00000000
PG01 -20169.481569 -13803.869039 -10871.448941    -16.188724 11  6 10 114       
PG02  -2022.694700  15660.863484  21902.835188    257.823234  9  6  6 120       
PG03 -13334.663310 -19670.223519  11888.244164    -28.516851  8  7  9  87       
PG04   9755.227073 -15338.716331  19030.878070 999999.999999
PG05   1675.210623  25489.352071   6768.001231    -20.057151  7  8  5 107       
PG06 -14705.274494   9892.133922  19809.719601    412.929941  6  5  7 136       
PG07 -25950.995234  -5527.751261  -3573.259860    267.258743  8  6  8 111       
PG08  -2682.999573 -16856.206855 -20262.257259    -83.760193  9  7  9 125       
PG09 -19935.411896   2206.942689  17380.987509    482.100351  7  8  7 114       
PG10  12608.342942 -10206.313407 -20980.296717    127.756622  5  7  6 114       
PG11 -16658.809839 -11791.746435 -17499.810260   -730.223345 10  8  6 133       
PG12  10387.457932  22589.764994   9448.574281    360.816965  7  6  7  96       
PG13  -6102.597451  19385.669424 -17225.395343    -94.684814  7  5  6 135       
PG14  18074.479954 -18864.562136   4538.348188    -90.383905  9  5  6  96       
PG15   6268.004450  15915.102565 -20436.626487   -357.382027  9  5 10 110       
PG16    -88.123248 -25612.609956   6014.398273     35.555155  8  5  6 124       
PG17 -21501.419425  14693.971359  -4420.930458   -138.768149  9  6  8 109       
PG18  16474.407830   2154.716968 -20159.668042    633.406829  5  8  8 119       
PG19 -19636.935457  17795.809902   2775.571598   -470.466213  8  7 10 123       
PG20  14185.939455  20874.973256  -8487.922424    495.309117  9  8  9 117       
PG21  25900.335920   3113.651236  -4330.388273   -453.474163  9  8 10 115       
PG22 -11054.904218 -23655.584567   5024.550597   -219.198630  9  6 10 112       
PG23 -13566.837062  -8509.647553  21487.747263   -218.954506  9  6  7 129       
PG24  18156.732058  14478.513580 -13235.162107    -43.337665  7  5  7 128       
PG25  15454.489453  11489.802122  18234.971739   -504.216932  5  5  3 117       
PG26   6007.088313 -20580.183820  15608.499519   -328.770935  6  7  6 132       
PG27   9017.860274 -21095.318196 -13237.127749    355.262952  7  9  9 123       
PG28 -13474.100011   5807.644718 -21508.423423    670.208603  9  6  4 109       
PG29  17212.072395   2895.588605  20007.639113    526.488871  8  3  5 113       
PG30 -23309.134680   1513.359384 -12768.734635    121.478905 10 11 13  95       
PG31  14207.931036 -10082.042209  20219.679223    156.131311  8  7  8  69       
PG32  20540.748955 -16392.475958  -3576.020043   -529.269657  8  7  6 125       
EOF
